TDRS 12                 
1 39504U 14004A   24088.04884112 -.00000260  00000+0  00000+0 0  9997
2 39504   3.5527   1.4294 0002179 228.1446 292.8157  1.00279069 37313
ABS-2                   
1 39508U 14006A   24087.92541490 -.00000077  00000+0  00000+0 0  9994
2 39508   0.0315  90.0905 0002544 277.2933 226.5079  1.00272261 37144
ATHENA-FIDUS            
1 39509U 14006B   24088.13612479  .00000163  00000+0  00000+0 0  9990
2 39509   0.0111 187.5062 0001565 202.0089 243.3276  1.00274604 37368
TURKSAT 4A              
1 39522U 14007A   24086.86317024  .00000153  00000+0  00000+0 0  9991
2 39522   0.0603 262.5198 0003189  63.2540 211.7457  1.00273169 36832
EXPRESS-AT1             
1 39612U 14010A   24088.13977973  .00000088  00000+0  00000+0 0  9999
2 39612   0.0131 244.0575 0000188 180.3316 227.9702  1.00272610 36911
EXPRESS-AT2             
1 39613U 14010B   24087.94164924 -.00000272  00000+0  00000+0 0  9998
2 39613   0.0240 260.6940 0000565  77.7496 326.2446  1.00272482 36746
AMAZONAS 4A             
1 39616U 14011A   24087.89909861 -.00000243  00000+0  00000+0 0  9991
2 39616   0.0398 150.9627 0002521 225.3335  59.1988  1.00270849 36561
ASTRA 5B                
1 39617U 14011B   24085.85113987  .00000141  00000+0  00000+0 0  9998
2 39617   0.0773 307.2712 0003688  37.2236 169.1878  1.00273991 36714
IRNSS-1B                
1 39635U 14017A   24085.56194688  .00000098  00000+0  00000+0 0  9990
2 39635  29.1478 254.2306 0020312 178.1120   8.5649  1.00276348 36630
LUCH-5V                 
1 39727U 14023A   24088.07581814 -.00000257  00000+0  00000+0 0  9997
2 39727   3.0954  76.4691 0002634 301.5563 289.9607  1.00269176554379
KAZSAT-3                
1 39728U 14023B   24088.14021485  .00000070  00000+0  00000+0 0  9991
2 39728   0.0097 162.6076 0000940 294.4238 197.9864  1.00272607 36301
EUTELSAT 3B             
1 39773U 14030A   24087.88111081  .00000029  00000+0  00000+0 0  9995
2 39773   0.0637   5.8255 0001456 217.1213 283.1239  1.00272020 35937
ASIASAT 8 (AMOS-7)      
1 40107U 14046A   24087.89285472 -.00000024  00000+0  00000+0 0  9998
2 40107   0.0234 234.7900 0002237 125.4323 143.1191  1.00271315 94016
ASIASAT 6               
1 40141U 14052A   24088.08174792 -.00000353  00000+0  00000+0 0  9992
2 40141   0.0157 208.5252 0001357 199.9082 286.8858  1.00271095 35023
OPTUS 10                
1 40146U 14054A   24087.30539301 -.00000139  00000+0  00000+0 0  9996
2 40146   0.0582 122.3136 0001913 252.8850  75.9649  1.00273033 34886
MEASAT-3B               
1 40147U 14054B   24086.68454506 -.00000235  00000+0  00000+0 0  9997
2 40147   0.0430  37.8927 0003405   3.1692 121.4656  1.00270240 34776
LUCH (OLYMP-K 1)        
1 40258U 14058A   24087.80742931 -.00000132  00000+0  00000+0 0  9997
2 40258   0.0529  78.8026 0002199 276.9900 102.4908  1.00272164 32868
HIMAWARI-8              
1 40267U 14060A   24087.78273259 -.00000267  00000+0  00000+0 0  9998
2 40267   0.0226 174.0720 0000868 221.3341 212.7382  1.00271926 34628
IRNSS-1C                
1 40269U 14061A   24088.07355554 -.00000150  00000+0  00000+0 0  9994
2 40269   4.4680 106.8304 0019242 358.9672 189.6954  1.00270958 34691
INTELSAT 30 (IS-30)     
1 40271U 14062A   24086.53455782 -.00000144  00000+0  00000+0 0  9994
2 40271   0.0134 199.4620 0000970 173.3773 269.0086  1.00269007 34443
ARSAT 1                 
1 40272U 14062B   24086.61883483 -.00000253  00000+0  00000+0 0  9998
2 40272   0.0094 243.1395 0001507 117.1799 335.1881  1.00271814 34746
EXPRESS-AM6             
1 40277U 14064A   24087.90785182  .00000107  00000+0  00000+0 0  9992
2 40277   0.0152 253.1428 0000484 169.4782 143.0118  1.00271725 33445
GSAT-16                 
1 40332U 14078A   24088.13951868  .00000094  00000+0  00000+0 0  9996
2 40332   0.0360 256.4130 0005426 178.6548 216.2566  1.00272094 34123
DIRECTV 14              
1 40333U 14078B   24087.40367675 -.00000117  00000+0  00000+0 0  9990
2 40333   0.0435 282.0672 0000142 350.8334 318.4984  1.00274134 33923
YAMAL 401               
1 40345U 14082A   24087.89806479 -.00000220  00000+0  00000+0 0  9996
2 40345   0.0123 193.8296 0000762 207.3611 197.8618  1.00271667 33788
ASTRA 2G                
1 40364U 14089A   24087.88697237  .00000159  00000+0  00000+0 0  9993
2 40364   0.0617   3.3158 0004305  38.6201 131.3621  1.00274399 33889
FENGYUN 2G              
1 40367U 14090A   24088.07677538 -.00000291  00000+0  00000+0 0  9990
2 40367   3.5813  82.4332 0002157  78.2895 152.2956  1.00281216 33904
MUOS-3                  
1 40374U 15002A   24088.12550802 -.00000117  00000+0  00000+0 0  9999
2 40374   3.1281  33.4498 0053048 181.8480   0.4579  1.00272688 33685
INMARSAT 5-F2           
1 40384U 15005A   24086.50605258 -.00000279  00000+0  00000+0 0  9998
2 40384   0.0228 183.7007 0000340 190.5691 297.3472  1.00268076 33524
ABS-3A                  
1 40424U 15010A   24086.76763001 -.00000020  00000+0  00000+0 0  9992
2 40424   0.0230 142.8607 0001384 120.2210 194.9795  1.00269980 33222
EUTELSAT 115 WEST B     
1 40425U 15010B   24086.61881289 -.00000018  00000+0  00000+0 0  9993
2 40425   0.0268  37.3244 0000481 129.6585 125.4213  1.00272442 33247
EXPRESS-AM7             
1 40505U 15012A   24087.85019191  .00000160  00000+0  00000+0 0  9993
2 40505   0.0183 170.5844 0003365 192.2872 168.9314  1.00270967 32879
IRNSS-1D                
1 40547U 15018A   24087.85140866 -.00000282  00000+0  00000+0 0  9995
2 40547  27.6558 254.1061 0021500 181.6122 168.9957  1.00272552 32849
BEIDOU-3S IGSO-1S       
1 40549U 15019A   24087.60898905 -.00000149  00000+0  00000+0 0  9997
2 40549  50.7226 305.1498 0035545 191.7639   3.0923  1.00267327 32936
THOR 7                  
1 40613U 15022A   24087.84209880  .00000001  00000+0  00000+0 0  9993
2 40613   0.0132 189.6287 0002514 176.4616 122.1533  1.00272998 32679
TURKMENALEM52E/MONACOSAT
1 40617U 15023A   24087.90675462  .00000113  00000+0  00000+0 0  9992
2 40617   0.0186 126.2340 0002453 237.6587 200.3522  1.00272027 32713
DIRECTV 15              
1 40663U 15026A   24087.64536289 -.00000093  00000+0  00000+0 0  9998
2 40663   0.0335  99.5949 0000503  97.1856 118.2350  1.00269608 32334
SKY MEXICO-1            
1 40664U 15026B   24088.18594906 -.00000225  00000+0  00000+0 0  9996
2 40664   0.0220 250.4386 0002318 136.7666 147.0548  1.00271744 32407
METEOSAT-11 (MSG-4)     
1 40732U 15034A   24087.84401330  .00000071  00000+0  00000+0 0  9999
2 40732   1.1921  66.7023 0001147 232.0730 199.9652  1.00272919 31877
STAR ONE C4             
1 40733U 15034B   24086.37827238 -.00000259  00000+0  00000+0 0  9995
2 40733   0.0552  31.0562 0002672 343.9357 235.4915  1.00272480 31871
WGS F7 (USA 263)        
1 40746U 15036A   24087.87699486  .00000026  00000+0  00000+0 0  9990
2 40746   0.0023 183.7138 0000191 309.6407 183.1213  1.00270751 31735
INTELSAT 34 (IS-34)     
1 40874U 15039A   24087.75933292 -.00000276  00000+0  00000+0 0  9996
2 40874   0.0442 341.6664 0000394 259.2983 162.5629  1.00270867 31487
EUTELSAT 8 WEST B       
1 40875U 15039B   24087.89285472 -.00000056  00000+0  00000+0 0  9998
2 40875   0.0674   4.0592 0004054   3.2002 131.9693  1.00272429 31512
GSAT-6                  
1 40880U 15041A   24087.93200184 -.00000151  00000+0  00000+0 0  9995
2 40880   0.0074 182.2423 0002249 177.9423 243.7133  1.00270658 31461
INMARSAT 5-F3           
1 40882U 15042A   24086.66376285  .00000056  00000+0  00000+0 0  9996
2 40882   0.0226 184.7038 0000460 290.6150 127.8201  1.00269060 31412
MUOS-4                  
1 40887U 15044A   24088.14343469 -.00000082  00000+0  00000+0 0  9996
2 40887   3.0027  30.1105 0058941 358.2534 284.2878  1.00272209 31420
TJS-1                   
1 40892U 15046A   24087.87307884 -.00000147  00000+0  00000+0 0  9996
2 40892   0.0210 343.1774 0003379  61.5209 250.4501  1.00270060 31425
EXPRESS-AM8             
1 40895U 15048A   24087.12344123 -.00000104  00000+0  00000+0 0  9999
2 40895   0.0220 251.8148 0000164 124.2215 199.4397  1.00272367 31238
BEIDOU-3S IGSO-2S       
1 40938U 15053A   24087.94557405 -.00000119  00000+0  00000+0 0  9998
2 40938  50.4876 268.3474 0049123 187.6566 166.4869  1.00281622 31217
SKY MUSTER 1 (NBN1A)    
1 40940U 15054A   24087.51212309 -.00000270  00000+0  00000+0 0  9994
2 40940   0.0166 225.4423 0001847 144.7532 139.8292  1.00270950 31125
ARSAT 2                 
1 40941U 15054B   24085.82143002 -.00000221  00000+0  00000+0 0  9996
2 40941   0.0283 304.1441 0001828  55.3385  38.9751  1.00272094 31156
MORELOS 3               
1 40946U 15056A   24087.89135359 -.00000035  00000+0  00000+0 0  9991
2 40946   3.0658 349.7999 0003368 353.9393  49.8133  1.00271551 31152
APSTAR-9                
1 40982U 15059A   24087.86826223 -.00000257  00000+0  00000+0 0  9994
2 40982   0.0164 129.5483 0000692 150.6509   0.1612  1.00272353 30984
TURKSAT 4B              
1 40984U 15060A   24085.76443333  .00000118  00000+0  00000+0 0  9997
2 40984   0.0218 110.6225 0002026 257.6834 140.5524  1.00272769 30941
CHINASAT 2C (ZX 2C)     
1 41021U 15063A   24088.07757841 -.00000315  00000+0  00000+0 0  9992
2 41021   0.0525 350.0759 0001759  35.5623 291.6824  1.00275475 30878
GSAT-15                 
1 41028U 15065A   24087.47002154 -.00000250  00000+0  00000+0 0  9992
2 41028   0.0131 126.3612 0002355 259.3486  62.3620  1.00271914 30653
BADR-7 (ARABSAT-6B)     
1 41029U 15065B   24088.03660792  .00000154  00000+0  00000+0 0  9996
2 41029   0.0459 239.1707 0003166  19.4785 326.4853  1.00269504 30770
LAOSAT 1                
1 41034U 15067A   24087.86777046 -.00000335  00000+0  00000+0 0  9997
2 41034   0.0507  25.4227 0002589 301.3687 299.8658  1.00269156 30729
TELSTAR 12V             
1 41036U 15068A   24088.19721464 -.00000109  00000+0  00000+0 0  9999
2 41036   0.0187 167.8352 0002634 206.7308 227.5326  1.00271937 30599
